{
  "norad_id": 55378,
  "name": "STARLINK-5572",
  "history": [
    {
      "epoch": "2026-03-28T14:34:45.859008Z",
      "apogee_km": 535.786171758934,
      "perigee_km": 533.6694525534522,
      "latitude_deg": 6.506011410015449e-06,
      "longitude_deg": 165.08853702679232,
      "height_km": 534.4735114597152,
      "semi_major_axis_km": 6912.864812156193,
      "eccentricity": 0.0001531,
      "inclination_deg": 43.0021,
      "raan_deg": 209.8051,
      "arg_perigee_deg": 271.7889,
      "mean_anomaly_deg": 88.2781,
      "mean_motion_rev_day": 15.10482389
    }
  ]
}