{"fetched_at":"2026-03-29T02:12:04Z","count":15717,"tles":[{"name":"STARLINK-5572","line1":"1 55378U 23013AZ  26087.60747522 -.00044853  00000+0 -26811-2 0  9998","line2":"2 55378  43.0021 209.8051 0001530 271.7889  88.2781 15.10482389174418","category":"Starlink"}]}